STARLINK-2186           
1 48561U 21041J   21275.58334491  .00027641  00000-0  64274-3 0  9992
2 48561  53.0544 176.4252 0002386  29.2324 185.9564 15.42137744 21891
STARLINK-2187           
1 48562U 21041K   21275.08801029  .00000802  00000-0  72762-4 0  9996
2 48562  53.0619 202.2828 0001712  59.0239 301.0918 15.06397782 21096
STARLINK-2188           
1 48563U 21041L   21275.17278967  .00000467  00000-0  50236-4 0  9995
2 48563  53.0568 201.9156 0001772  57.1123 303.0036 15.06392641 21101
STARLINK-2190           
1 48564U 21041M   21275.16541674  .00001146  00000-0  95819-4 0  9994
2 48564  53.0563 201.9429 0001555  68.4174 291.6980 15.06399069 21101
STARLINK-2191           
1 48565U 21041N   21275.22807776  .00001188  00000-0  98646-4 0  9997
2 48565  53.0575 201.6606 0001870  67.4057 292.7129 15.06401490 21567
STARLINK-2214           
1 48566U 21041P   21275.11931554  .00001041  00000-0  88744-4 0  9994
2 48566  53.0556 212.1478 0001667  71.4896 288.6274 15.06401518 20959
STARLINK-2215           
1 48567U 21041Q   21275.13132157  .00000386  00000-0  44840-4 0  9999
2 48567  53.0553 212.0899 0001838  70.6977 289.4210 15.06395046 20951
STARLINK-2217           
1 48568U 21041R   21275.20964466  .00001005  00000-0  86378-4 0  9995
2 48568  53.0502 201.7605 0001538  66.8965 293.2186 15.06398055 21103
STARLINK-2219           
1 48569U 21041S   21275.16909246  .00002105  00000-0  16015-3 0  9998
2 48569  53.0566 201.9335 0001661  55.6432 304.4714 15.06405656 21106
STARLINK-2220           
1 48570U 21041T   21275.09077642  .00002236  00000-0  16894-3 0  9998
2 48570  53.0532 212.2760 0001722  58.6934 301.4224 15.06404856 20941
STARLINK-2221           
1 48571U 21041U   21275.23082876  .00000780  00000-0  71295-4 0  9999
2 48571  53.0546 211.6486 0001471  61.5806 298.5331 15.06384324 21377
STARLINK-2222           
1 48572U 21041V   21275.29362767 -.00056558  00000-0 -38335-2 0  9998
2 48572  53.0542 211.3616 0003718 171.9986 188.1063 15.06149977 21387
STARLINK-2224           
1 48573U 21041W   21275.07326380  .00002132  00000-0  16198-3 0  9997
2 48573  53.0513 202.3653 0001748  60.6242 299.4921 15.06406086 21080
STARLINK-2225           
1 48574U 21041X   21275.58334491  .00016374  00000-0  38500-3 0  9990
2 48574  53.0542 176.4159 0002127  28.0569 188.3829 15.42151375 21886
STARLINK-2227           
1 48575U 21041Y   21275.33334491 -.00115139  00000-0 -26693-2 0  9994
2 48575  53.0559 180.6157 0001777  39.2032 222.3506 15.42233080  3693
STARLINK-2228           
1 48576U 21041Z   21275.33334491 -.01090879  00000-0 -31054-1 0  9995
2 48576  53.0531 177.6510 0000676 339.7661 273.7881 15.38308482  3629
STARLINK-2231           
1 48577U 21041AA  21275.06589278  .00000900  00000-0  79288-4 0  9998
2 48577  53.0535 202.4007 0001744  59.0771 301.0390 15.06407465 21089
STARLINK-2232           
1 48578U 21041AB  21275.17921435  .00000412  00000-0  46595-4 0  9999
2 48578  53.0563 201.8684 0001680  59.2694 300.8460 15.06395455 21103
STARLINK-2233           
1 48579U 21041AC  21275.18752567  .00001399  00000-0  11280-3 0  9996
2 48579  53.0561 201.8413 0001670  68.0375 292.0792 15.06407520 21102
STARLINK-2234           
1 48580U 21041AD  21275.58334491 -.01079936  00000-0 -32785-1 0  9990
2 48580  53.0532 176.4742 0001564  52.7077 133.7967 15.36302803 21943
STARLINK-2235           
1 48581U 21041AE  21275.33334491 -.00090518  00000-0 -20893-2 0  9990
2 48581  53.0533 179.7389 0001916  35.3318 226.0486 15.42239502  3667
STARLINK-2236           
1 48582U 21041AF  21275.58334491  .00012598  00000-0  29853-3 0  9994
2 48582  53.0545 177.1190 0002001  29.6568 185.7536 15.42151338 21939
STARLINK-2237           
1 48583U 21041AG  21275.10183381  .00000485  00000-0  51490-4 0  9998
2 48583  53.0566 212.2308 0001758  63.4174 296.6995 15.06392933 20952
STARLINK-2238           
1 48584U 21041AH  21275.20873046  .00000309  00000-0  39659-4 0  9992
2 48584  53.0560 211.7372 0001854  58.5232 301.5938 15.06394316 20960
STARLINK-2240           
1 48585U 21041AJ  21275.08708455  .00001414  00000-0  11377-3 0  9994
2 48585  53.0552 212.2919 0001536  76.1352 283.9808 15.06403744 20944
STARLINK-2241           
1 48586U 21041AK  21275.21241140  .00001129  00000-0  94683-4 0  9998
2 48586  53.0552 211.7294 0001627  64.5831 295.5326 15.06404603 20960
STARLINK-2242           
1 48587U 21041AL  21275.21884040  .00000717  00000-0  67033-4 0  9992
2 48587  53.0542 211.6923 0001832  65.1246 294.9933 15.06397626 20966
STARLINK-2244           
1 48588U 21041AM  21275.46029040  .00000645  00000-0  62217-4 0  9990
2 48588  53.0558 200.6313 0001637  60.0580 300.0571 15.06399719 21595
STARLINK-2245           
1 48589U 21041AN  21275.05852825  .00002356  00000-0  17691-3 0  9997
2 48589  53.0532 202.4291 0001765  46.1004 314.0131 15.06417152 21084
STARLINK-2246           
1 48590U 21041AP  21275.21609899  .00001122  00000-0  94158-4 0  9992
2 48590  53.0553 211.7107 0001802  63.8157 296.3018 15.06414698 20969
