OBJECT_NAME,OBJECT_ID,EPOCH,MEAN_MOTION,ECCENTRICITY,INCLINATION,RA_OF_ASC_NODE,ARG_OF_PERICENTER,MEAN_ANOMALY,EPHEMERIS_TYPE,CLASSIFICATION_TYPE,NORAD_CAT_ID,ELEMENT_SET_NO,REV_AT_EPOCH,BSTAR,MEAN_MOTION_DOT,MEAN_MOTION_DDOT
STARLINK-2186,2021-041J,2021-10-02T14:00:01.000224,15.42137744,.0002386,53.0544,176.4252,29.2324,185.9564,0,U,48561,999,2189,.64274E-3,.27641E-3,0
STARLINK-2187,2021-041K,2021-10-02T02:06:44.089056,15.06397782,.0001712,53.0619,202.2828,59.0239,301.0918,0,U,48562,999,2109,.72762E-4,.802E-5,0
STARLINK-2188,2021-041L,2021-10-02T04:08:49.027488,15.06392641,.0001772,53.0568,201.9156,57.1123,303.0036,0,U,48563,999,2110,.50236E-4,.467E-5,0
STARLINK-2190,2021-041M,2021-10-02T03:58:12.006336,15.06399069,.0001555,53.0563,201.9429,68.4174,291.6980,0,U,48564,999,2110,.95819E-4,.1146E-4,0
STARLINK-2191,2021-041N,2021-10-02T05:28:25.918464,15.06401490,.000187,53.0575,201.6606,67.4057,292.7129,0,U,48565,999,2156,.98646E-4,.1188E-4,0
STARLINK-2214,2021-041P,2021-10-02T02:51:48.862656,15.06401518,.0001667,53.0556,212.1478,71.4896,288.6274,0,U,48566,999,2095,.88744E-4,.1041E-4,0
STARLINK-2215,2021-041Q,2021-10-02T03:09:06.183648,15.06395046,.0001838,53.0553,212.0899,70.6977,289.4210,0,U,48567,999,2095,.4484E-4,.386E-5,0
STARLINK-2217,2021-041R,2021-10-02T05:01:53.298624,15.06398055,.0001538,53.0502,201.7605,66.8965,293.2186,0,U,48568,999,2110,.86378E-4,.1005E-4,0
STARLINK-2219,2021-041S,2021-10-02T04:03:29.588544,15.06405656,.0001661,53.0566,201.9335,55.6432,304.4714,0,U,48569,999,2110,.16015E-3,.2105E-4,0
STARLINK-2220,2021-041T,2021-10-02T02:10:43.082688,15.06404856,.0001722,53.0532,212.2760,58.6934,301.4224,0,U,48570,999,2094,.16894E-3,.2236E-4,0
STARLINK-2221,2021-041U,2021-10-02T05:32:23.604864,15.06384324,.0001471,53.0546,211.6486,61.5806,298.5331,0,U,48571,999,2137,.71295E-4,.78E-5,0
STARLINK-2222,2021-041V,2021-10-02T07:02:49.430688,15.06149977,.0003718,53.0542,211.3616,171.9986,188.1063,0,U,48572,999,2138,-.38335E-2,-.56558E-3,0
STARLINK-2224,2021-041W,2021-10-02T01:45:29.992320,15.06406086,.0001748,53.0513,202.3653,60.6242,299.4921,0,U,48573,999,2108,.16198E-3,.2132E-4,0
STARLINK-2225,2021-041X,2021-10-02T14:00:01.000224,15.42151375,.0002127,53.0542,176.4159,28.0569,188.3829,0,U,48574,999,2188,.385E-3,.16374E-3,0
STARLINK-2227,2021-041Y,2021-10-02T08:00:01.000224,15.42233080,.0001777,53.0559,180.6157,39.2032,222.3506,0,U,48575,999,369,-.26693E-2,-.115139E-2,0
STARLINK-2228,2021-041Z,2021-10-02T08:00:01.000224,15.38308482,.0000676,53.0531,177.6510,339.7661,273.7881,0,U,48576,999,362,-.31054E-1,-.1090879E-1,0
STARLINK-2231,2021-041AA,2021-10-02T01:34:53.136192,15.06407465,.0001744,53.0535,202.4007,59.0771,301.0390,0,U,48577,999,2108,.79288E-4,.9E-5,0
STARLINK-2232,2021-041AB,2021-10-02T04:18:04.119840,15.06395455,.000168,53.0563,201.8684,59.2694,300.8460,0,U,48578,999,2110,.46595E-4,.412E-5,0
STARLINK-2233,2021-041AC,2021-10-02T04:30:02.217888,15.06407520,.000167,53.0561,201.8413,68.0375,292.0792,0,U,48579,999,2110,.1128E-3,.1399E-4,0
STARLINK-2234,2021-041AD,2021-10-02T14:00:01.000224,15.36302803,.0001564,53.0532,176.4742,52.7077,133.7967,0,U,48580,999,2194,-.32785E-1,-.1079936E-1,0
STARLINK-2235,2021-041AE,2021-10-02T08:00:01.000224,15.42239502,.0001916,53.0533,179.7389,35.3318,226.0486,0,U,48581,999,366,-.20893E-2,-.90518E-3,0
STARLINK-2236,2021-041AF,2021-10-02T14:00:01.000224,15.42151338,.0002001,53.0545,177.1190,29.6568,185.7536,0,U,48582,999,2193,.29853E-3,.12598E-3,0
STARLINK-2237,2021-041AG,2021-10-02T02:26:38.441184,15.06392933,.0001758,53.0566,212.2308,63.4174,296.6995,0,U,48583,999,2095,.5149E-4,.485E-5,0
STARLINK-2238,2021-041AH,2021-10-02T05:00:34.311744,15.06394316,.0001854,53.0560,211.7372,58.5232,301.5938,0,U,48584,999,2096,.39659E-4,.309E-5,0
STARLINK-2240,2021-041AJ,2021-10-02T02:05:24.105120,15.06403744,.0001536,53.0552,212.2919,76.1352,283.9808,0,U,48585,999,2094,.11377E-3,.1414E-4,0
STARLINK-2241,2021-041AK,2021-10-02T05:05:52.344960,15.06404603,.0001627,53.0552,211.7294,64.5831,295.5326,0,U,48586,999,2096,.94683E-4,.1129E-4,0
STARLINK-2242,2021-041AL,2021-10-02T05:15:07.810560,15.06397626,.0001832,53.0542,211.6923,65.1246,294.9933,0,U,48587,999,2096,.67033E-4,.717E-5,0
STARLINK-2244,2021-041AM,2021-10-02T11:02:49.090560,15.06399719,.0001637,53.0558,200.6313,60.0580,300.0571,0,U,48588,999,2159,.62217E-4,.645E-5,0
STARLINK-2245,2021-041AN,2021-10-02T01:24:16.840800,15.06417152,.0001765,53.0532,202.4291,46.1004,314.0131,0,U,48589,999,2108,.17691E-3,.2356E-4,0
STARLINK-2246,2021-041AP,2021-10-02T05:11:10.952736,15.06414698,.0001802,53.0553,211.7107,63.8157,296.3018,0,U,48590,999,2096,.94158E-4,.1122E-4,0
